{"type": "FeatureCollection", "features": [ {"type": "Feature", "properties": {"norad_id": 31431, "name": "FENGYUN 1C DEB", "group": "fengyun-1c-debris", "lat": -29.498359907288314, "lon": 47.69252655262936, "alt_km": 916.7861691011913, "timestamp": "2025-12-10T05:46:14.105060+00:00", "meta": {"OBJECT_NAME": "FENGYUN 1C DEB", "OBJECT_ID": "1999-025BTT", "EPOCH": "2025-12-07T15:10:24.373056", "MEAN_MOTION": 14.03044754, "ECCENTRICITY": 0.01330657, "INCLINATION": 98.5386, "RA_OF_ASC_NODE": 230.1202, "ARG_OF_PERICENTER": 109.6865, "MEAN_ANOMALY": 251.8715, "EPHEMERIS_TYPE": 0, "CLASSIFICATION_TYPE": "U", "NORAD_CAT_ID": 31431, "ELEMENT_SET_NO": 999, "REV_AT_EPOCH": 94460, "BSTAR": 0.0022798155, "MEAN_MOTION_DOT": 3.793e-05, "MEAN_MOTION_DDOT": 0}, "tle": {"line1": "1 31431U 99025BTT 25341.63222654  .00003793  00000+0  22798-2 0  9993", "line2": "2 31431  98.5386 230.1202 0133065 109.6865 251.8715 14.03044754944600"}}, "geometry": {"type": "Point", "coordinates": [47.69252655262936, -29.498359907288314]}}, {"type": "Feature", "properties": {"norad_id": 31433, "name": "FENGYUN 1C DEB", "group": "fengyun-1c-debris", "lat": -65.04307831102112, "lon": -93.65396040743995, "alt_km": 829.8042988315019, "timestamp": "2025-12-10T05:46:14.105070+00:00", "meta": {"OBJECT_NAME": "FENGYUN 1C DEB", "OBJECT_ID": "1999-025BTV", "EPOCH": "2025-12-09T16:44:12.742080", "MEAN_MOTION": 14.25370278, "ECCENTRICITY": 0.0100257, "INCLINATION": 98.4095, "RA_OF_ASC_NODE": 247.2915, "ARG_OF_PERICENTER": 38.1181, "MEAN_ANOMALY": 351.5393, "EPHEMERIS_TYPE": 0, "CLASSIFICATION_TYPE": "U", "NORAD_CAT_ID": 31433, "ELEMENT_SET_NO": 999, "REV_AT_EPOCH": 95509, "BSTAR": 0.003718, "MEAN_MOTION_DOT": 9.207e-05, "MEAN_MOTION_DDOT": 0}, "tle": {"line1": "1 31433U 99025BTV 25343.69736970  .00009207  00000+0  37180-2 0  9991", "line2": "2 31433  98.4095 247.2915 0100257  38.1181 351.5393 14.25370278955094"}}, "geometry": {"type": "Point", "coordinates": [-93.65396040743995, -65.04307831102112]}}, {"type": "Feature", "properties": {"norad_id": 31435, "name": "FENGYUN 1C DEB", "group": "fengyun-1c-debris", "lat": 60.61148114033859, "lon": -7.7141010334421045, "alt_km": 670.2391067371609, "timestamp": "2025-12-10T05:46:14.105080+00:00", "meta": {"OBJECT_NAME": "FENGYUN 1C DEB", "OBJECT_ID": "1999-025BTX", "EPOCH": "2025-12-09T06:05:22.430976", "MEAN_MOTION": 14.53422646, "ECCENTRICITY": 0.0148873, "INCLINATION": 99.0366, "RA_OF_ASC_NODE": 154.8087, "ARG_OF_PERICENTER": 190.5254, "MEAN_ANOMALY": 169.2813, "EPHEMERIS_TYPE": 0, "CLASSIFICATION_TYPE": "U", "NORAD_CAT_ID": 31435, "ELEMENT_SET_NO": 999, "REV_AT_EPOCH": 98322, "BSTAR": 0.00049493, "MEAN_MOTION_DOT": 2.326e-05, "MEAN_MOTION_DDOT": 0}, "tle": {"line1": "1 31435U 99025BTX 25343.25373184  .00002326  00000+0  49493-3 0  9995", "line2": "2 31435  99.0366 154.8087 0148873 190.5254 169.2813 14.53422646983222"}}, "geometry": {"type": "Point", "coordinates": [-7.7141010334421045, 60.61148114033859]}}, {"type": "Feature", "properties": {"norad_id": 31436, "name": "FENGYUN 1C DEB", "group": "fengyun-1c-debris", "lat": 71.31896587696619, "lon": 169.3160090914107, "alt_km": 611.7451051282897, "timestamp": "2025-12-10T05:46:14.105090+00:00", "meta": {"OBJECT_NAME": "FENGYUN 1C DEB", "OBJECT_ID": "1999-025BTY", "EPOCH": "2025-12-08T13:28:51.661920", "MEAN_MOTION": 14.93022785, "ECCENTRICITY": 0.0044316, "INCLINATION": 98.882, "RA_OF_ASC_NODE": 194.9716, "ARG_OF_PERICENTER": 256.2521, "MEAN_ANOMALY": 159.099, "EPHEMERIS_TYPE": 0, "CLASSIFICATION_TYPE": "U", "NORAD_CAT_ID": 31436, "ELEMENT_SET_NO": 999, "REV_AT_EPOCH": 96814, "BSTAR": 0.005826, "MEAN_MOTION_DOT": 0.00062201, "MEAN_MOTION_DDOT": 0}, "tle": {"line1": "1 31436U 99025BTY 25342.56170905  .00062201  00000+0  58260-2 0  9994", "line2": "2 31436  98.8820 194.9716 0044316 256.2521 159.0990 14.93022785968144"}}, "geometry": {"type": "Point", "coordinates": [169.3160090914107, 71.31896587696619]}}, {"type": "Feature", "properties": {"norad_id": 31437, "name": "FENGYUN 1C DEB", "group": "fengyun-1c-debris", "lat": 47.980054564591086, "lon": 55.23583521550953, "alt_km": 755.8991977410551, "timestamp": "2025-12-10T05:46:14.105100+00:00", "meta": {"OBJECT_NAME": "FENGYUN 1C DEB", "OBJECT_ID": "1999-025BTZ", "EPOCH": "2025-12-09T16:13:35.436576", "MEAN_MOTION": 14.42435333, "ECCENTRICITY": 0.0015259, "INCLINATION": 98.8621, "RA_OF_ASC_NODE": 64.6212, "ARG_OF_PERICENTER": 256.234, "MEAN_ANOMALY": 103.715, "EPHEMERIS_TYPE": 0, "CLASSIFICATION_TYPE": "U", "NORAD_CAT_ID": 31437, "ELEMENT_SET_NO": 999, "REV_AT_EPOCH": 96466, "BSTAR": 0.0034638, "MEAN_MOTION_DOT": 0.00011452, "MEAN_MOTION_DDOT": 0}, "tle": {"line1": "1 31437U 99025BTZ 25343.67610459  .00011452  00000+0  34638-2 0  9996", "line2": "2 31437  98.8621  64.6212 0015259 256.2340 103.7150 14.42435333964669"}}, "geometry": {"type": "Point", "coordinates": [55.23583521550953, 47.980054564591086]}}, {"type": "Feature", "properties": {"norad_id": 31439, "name": "FENGYUN 1C DEB", "group": "fengyun-1c-debris", "lat": -75.62493094962313, "lon": 132.56871195959863, "alt_km": 915.0813372792863, "timestamp": "2025-12-10T05:46:14.105110+00:00", "meta": {"OBJECT_NAME": "FENGYUN 1C DEB", "OBJECT_ID": "1999-025BUB", "EPOCH": "2025-12-09T20:31:31.179072", "MEAN_MOTION": 13.95572848, "ECCENTRICITY": 0.0137771, "INCLINATION": 98.917, "RA_OF_ASC_NODE": 349.9716, "ARG_OF_PERICENTER": 169.7119, "MEAN_ANOMALY": 313.0615, "EPHEMERIS_TYPE": 0, "CLASSIFICATION_TYPE": "U", "NORAD_CAT_ID": 31439, "ELEMENT_SET_NO": 999, "REV_AT_EPOCH": 63192, "BSTAR": 0.00093637, "MEAN_MOTION_DOT": 1.336e-05, "MEAN_MOTION_DDOT": 0}, "tle": {"line1": "1 31439U 99025BUB 25343.85522198  .00001336  00000+0  93637-3 0  9995", "line2": "2 31439  98.9170 349.9716 0137771 169.7119 313.0615 13.95572848631927"}}, "geometry": {"type": "Point", "coordinates": [132.56871195959863, -75.62493094962313]}}, {"type": "Feature", "properties": {"norad_id": 31440, "name": "FENGYUN 1C DEB", "group": "fengyun-1c-debris", "lat": -8.619856889035676, "lon": -109.13783144225164, "alt_km": 798.4022149799976, "timestamp": "2025-12-10T05:46:14.105120+00:00", "meta": {"OBJECT_NAME": "FENGYUN 1C DEB", "OBJECT_ID": "1999-025BUC", "EPOCH": "2025-12-05T04:32:40.273728", "MEAN_MOTION": 14.36571049, "ECCENTRICITY": 0.00367226, "INCLINATION": 98.7465, "RA_OF_ASC_NODE": 67.0707, "ARG_OF_PERICENTER": 5.5428, "MEAN_ANOMALY": 354.6157, "EPHEMERIS_TYPE": 0, "CLASSIFICATION_TYPE": "U", "NORAD_CAT_ID": 31440, "ELEMENT_SET_NO": 999, "REV_AT_EPOCH": 96217, "BSTAR": 0.0037851683, "MEAN_MOTION_DOT": 0.00011182, "MEAN_MOTION_DDOT": 0}, "tle": {"line1": "1 31440U 99025BUC 25339.18935502  .00011182  00000+0  37852-2 0  9991", "line2": "2 31440  98.7465  67.0707 0036722   5.5428 354.6157 14.36571049962170"}}, "geometry": {"type": "Point", "coordinates": [-109.13783144225164, -8.619856889035676]}}, {"type": "Feature", "properties": {"norad_id": 31441, "name": "FENGYUN 1C DEB", "group": "fengyun-1c-debris", "lat": -18.097211765800164, "lon": 23.603897709545535, "alt_km": 710.4175230385608, "timestamp": "2025-12-10T05:46:14.105130+00:00", "meta": {"OBJECT_NAME": "FENGYUN 1C DEB", "OBJECT_ID": "1999-025BUD", "EPOCH": "2025-12-07T08:28:41.429856", "MEAN_MOTION": 14.7453624, "ECCENTRICITY": 0.01049906, "INCLINATION": 99.3118, "RA_OF_ASC_NODE": 203.3613, "ARG_OF_PERICENTER": 352.0587, "MEAN_ANOMALY": 7.8951, "EPHEMERIS_TYPE": 0, "CLASSIFICATION_TYPE": "U", "NORAD_CAT_ID": 31441, "ELEMENT_SET_NO": 999, "REV_AT_EPOCH": 64011, "BSTAR": 0.0080507132, "MEAN_MOTION_DOT": 0.0005895, "MEAN_MOTION_DDOT": 0}, "tle": {"line1": "1 31441U 99025BUD 25341.35325729  .00058950  00000+0  80507-2 0  9997", "line2": "2 31441  99.3118 203.3613 0104990 352.0587   7.8951 14.74536240640115"}}, "geometry": {"type": "Point", "coordinates": [23.603897709545535, -18.097211765800164]}}, {"type": "Feature", "properties": {"norad_id": 31442, "name": "FENGYUN 1C DEB", "group": "fengyun-1c-debris", "lat": -22.77499406895462, "lon": -113.36069070382744, "alt_km": 840.7438044432583, "timestamp": "2025-12-10T05:46:14.105178+00:00", "meta": {"OBJECT_NAME": "FENGYUN 1C DEB", "OBJECT_ID": "1999-025BUE", "EPOCH": "2025-12-06T12:04:12.458208", "MEAN_MOTION": 14.33910903, "ECCENTRICITY": 0.00793626, "INCLINATION": 98.5308, "RA_OF_ASC_NODE": 66.5662, "ARG_OF_PERICENTER": 31.0829, "MEAN_ANOMALY": 329.5016, "EPHEMERIS_TYPE": 0, "CLASSIFICATION_TYPE": "U", "NORAD_CAT_ID": 31442, "ELEMENT_SET_NO": 999, "REV_AT_EPOCH": 97271, "BSTAR": 0.00066447514, "MEAN_MOTION_DOT": 1.875e-05, "MEAN_MOTION_DDOT": 0}, "tle": {"line1": "1 31442U 99025BUE 25340.50292197  .00001875  00000+0  66448-3 0  9999", "line2": "2 31442  98.5308  66.5662 0079362  31.0829 329.5016 14.33910903972715"}}, "geometry": {"type": "Point", "coordinates": [-113.36069070382744, -22.77499406895462]}}, {"type": "Feature", "properties": {"norad_id": 31443, "name": "FENGYUN 1C DEB", "group": "fengyun-1c-debris", "lat": 41.02251342576809, "lon": -88.3950185223997, "alt_km": 611.0091762033471, "timestamp": "2025-12-10T05:46:14.105204+00:00", "meta": {"OBJECT_NAME": "FENGYUN 1C DEB", "OBJECT_ID": "1999-025BUF", "EPOCH": "2025-12-07T12:29:55.144032", "MEAN_MOTION": 14.48576855, "ECCENTRICITY": 0.01922111, "INCLINATION": 99.2106, "RA_OF_ASC_NODE": 80.5241, "ARG_OF_PERICENTER": 113.7036, "MEAN_ANOMALY": 248.4452, "EPHEMERIS_TYPE": 0, "CLASSIFICATION_TYPE": "U", "NORAD_CAT_ID": 31443, "ELEMENT_SET_NO": 999, "REV_AT_EPOCH": 66866, "BSTAR": 0.0023218128, "MEAN_MOTION_DOT": 0.00010992, "MEAN_MOTION_DDOT": 0}, "tle": {"line1": "1 31443U 99025BUF 25341.52077713  .00010992  00000+0  23218-2 0  9995", "line2": "2 31443  99.2106  80.5241 0192211 113.7036 248.4452 14.48576855668665"}}, "geometry": {"type": "Point", "coordinates": [-88.3950185223997, 41.02251342576809]}}]}